NORAD_CAT_ID,OBJECT_NAME,OBJECT_TYPE,EPOCH,MEAN_MOTION,ECCENTRICITY,INCLINATION,RA_OF_ASC_NODE,ARG_OF_PERICENTER,MEAN_ANOMALY,BSTAR,MEAN_MOTION_DOT,MEAN_MOTION_DDOT,TLE_LINE0,TLE_LINE1,TLE_LINE2,SEMIMAJOR_AXIS,PERIOD,APOGEE,PERIGEE,DECAYED
51768.0,STARLINK-3622,PAYLOAD,2024-01-04 00:16:20,15.08836421,0.0001706,53.2184,311.063,109.0674,251.0503,-9.4949e-05,-1.799e-05,0.0,0 STARLINK-3622,1 51768U 22017A   24004.01134852 -.00001799  00000-0 -94949-4 0  9990,2 51768  53.2184 311.0630 0001706 109.0674 251.0503 15.08836421103937,6917.891,95.438,540.937,538.576,0.0
51768.0,STARLINK-3622,PAYLOAD,2024-01-04 20:56:21,15.0883882,0.000138,53.2176,307.1965,94.2799,265.835,8.6502e-05,1.089e-05,0.0,0 STARLINK-3622,1 51768U 22017A   24004.87246899  .00001089  00000-0  86502-4 0  9995,2 51768  53.2176 307.1965 0001380  94.2799 265.8350 15.08838820104058,6917.884,95.438,540.704,538.794,0.0
51768.0,STARLINK-3622,PAYLOAD,2024-01-05 03:17:53,15.08847454,0.00015,53.2176,306.007,98.2369,261.8794,0.00020831,3.029e-05,0.0,0 STARLINK-3622,1 51768U 22017A   24005.13742470  .00003029  00000-0  20831-3 0  9999,2 51768  53.2176 306.0070 0001500  98.2369 261.8794 15.08847454104101,6917.858,95.437,540.76,538.685,0.0
51768.0,STARLINK-3622,PAYLOAD,2024-01-05 19:11:44,15.08846026,0.0001738,53.2181,303.0413,103.047,257.0716,-2.0576e-06,-3.21e-06,0.0,0 STARLINK-3622,1 51768U 22017A   24005.79982496 -.00000321  00000-0 -20576-5 0  9997,2 51768  53.2181 303.0413 0001738 103.0470 257.0716 15.08846026104190,6917.862,95.437,540.929,538.525,0.0
51768.0,STARLINK-3622,PAYLOAD,2024-01-06 04:44:03,15.088448,0.0001561,53.2182,301.2502,84.6678,275.4492,0.00014416,2.007e-05,0.0,0 STARLINK-3622,1 51768U 22017A   24006.19726815  .00002007  00000-0  14416-3 0  9998,2 51768  53.2182 301.2502 0001561  84.6678 275.4492 15.08844800104269,6917.866,95.437,540.811,538.651,0.0
51768.0,STARLINK-3622,PAYLOAD,2024-01-06 19:02:32,15.08840878,0.0001571,53.2174,298.5742,84.9987,275.1184,-2.3532e-06,-3.25e-06,0.0,0 STARLINK-3622,1 51768U 22017A   24006.79343086 -.00000325  00000-0 -23532-5 0  9993,2 51768  53.2174 298.5742 0001571  84.9987 275.1184 15.08840878104357,6917.878,95.437,540.83,538.656,0.0
51768.0,STARLINK-3622,PAYLOAD,2024-01-07 04:34:50,15.08850234,0.0001663,53.2172,296.79,86.2332,273.885,0.00013837,1.915e-05,0.0,0 STARLINK-3622,1 51768U 22017A   24007.19086581  .00001915  00000-0  13837-3 0  9991,2 51768  53.2172 296.7900 0001663  86.2332 273.8850 15.08850234104411,6917.849,95.437,540.865,538.564,0.0
51768.0,STARLINK-3622,PAYLOAD,2024-01-07 20:28:42,15.08838064,0.0001466,53.2166,293.8133,112.7923,247.3224,-1.8268e-05,-5.79e-06,0.0,0 STARLINK-3622,1 51768U 22017A   24007.85327065 -.00000579  00000-0 -18268-4 0  9990,2 51768  53.2166 293.8133 0001466 112.7923 247.3224 15.08838064104500,6917.886,95.438,540.765,538.737,0.0
51768.0,STARLINK-3622,PAYLOAD,2024-01-08 01:14:51,15.08845006,0.0001571,53.2173,292.9218,104.0564,256.0603,6.3084e-05,7.16e-06,0.0,0 STARLINK-3622,1 51768U 22017A   24008.05198895  .00000716  00000-0  63084-4 0  9997,2 51768  53.2173 292.9218 0001571 104.0564 256.0603 15.08845006104540,6917.865,95.437,540.817,538.643,0.0
51768.0,STARLINK-3622,PAYLOAD,2024-01-08 21:54:52,15.08843959,0.0001628,53.2172,289.0566,100.169,259.9486,5.0735e-05,5.2e-06,0.0,0 STARLINK-3622,1 51768U 22017A   24008.91311128  .00000520  00000-0  50735-4 0  9990,2 51768  53.2172 289.0566 0001628 100.1690 259.9486 15.08843959104661,6917.868,95.437,540.86,538.607,0.0
51768.0,STARLINK-3622,PAYLOAD,2024-01-09 04:16:25,15.08846053,0.0001635,53.2174,287.865,100.0055,260.1122,0.00010043,1.311e-05,0.0,0 STARLINK-3622,1 51768U 22017A   24009.17806996  .00001311  00000-0  10043-3 0  9997,2 51768  53.2174 287.8650 0001635 100.0055 260.1122 15.08846053104710,6917.862,95.437,540.858,538.596,0.0
51768.0,STARLINK-3622,PAYLOAD,2024-01-09 21:45:39,15.08843524,0.0001619,53.217,284.5922,93.8942,266.2235,0.0001065,1.407e-05,0.0,0 STARLINK-3622,1 51768U 22017A   24009.90671095  .00001407  00000-0  10650-3 0  9998,2 51768  53.2170 284.5922 0001619  93.8942 266.2235 15.08843524104811,6917.87,95.437,540.855,538.615,0.0
51768.0,STARLINK-3622,PAYLOAD,2024-01-10 04:07:12,15.08844521,0.0001648,53.2178,283.4039,93.3754,266.7427,8.7665e-05,1.108e-05,0.0,0 STARLINK-3622,1 51768U 22017A   24010.17166911  .00001108  00000-0  87665-4 0  9994,2 51768  53.2178 283.4039 0001648  93.3754 266.7427 15.08844521104854,6917.867,95.437,540.872,538.592,0.0
51768.0,STARLINK-3622,PAYLOAD,2024-01-10 23:11:50,15.0883703,0.000176,53.218,279.8349,109.0372,251.0811,6.0853e-07,-2.78e-06,0.0,0 STARLINK-3622,1 51768U 22017A   24010.96655700 -.00000278  00000-0  60853-6 0  9990,2 51768  53.2180 279.8349 0001760 109.0372 251.0811 15.08837030104981,6917.889,95.438,540.972,538.537,0.0
51768.0,STARLINK-3622,PAYLOAD,2024-01-11 21:27:14,15.08837382,0.0001681,53.2174,275.6704,110.0629,250.0544,9.5415e-05,1.231e-05,0.0,0 STARLINK-3622,1 51768U 22017A   24011.89391589  .00001231  00000-0  95415-4 0  9994,2 51768  53.2174 275.6704 0001681 110.0629 250.0544 15.08837382105110,6917.888,95.438,540.916,538.59,0.0
51768.0,STARLINK-3622,PAYLOAD,2024-01-12 02:13:23,15.08848331,0.000141,53.2173,274.7824,89.9977,270.1177,4.5975e-05,4.44e-06,0.0,0 STARLINK-3622,1 51768U 22017A   24012.09263175  .00000444  00000-0  45975-4 0  9997,2 51768  53.2173 274.7824 0001410  89.9977 270.1177 15.08848331105157,6917.855,95.437,540.695,538.745,0.0
51768.0,STARLINK-3622,PAYLOAD,2024-01-12 22:53:25,15.08831965,0.0001684,53.2171,270.922,83.0838,277.0346,3.5269e-05,2.73e-06,0.0,0 STARLINK-3622,1 51768U 22017A   24012.95376464  .00000273  00000-0  35269-4 0  9993,2 51768  53.2171 270.9220 0001684  83.0838 277.0346 15.08831965105279,6917.905,95.438,540.935,538.605,0.0
51768.0,STARLINK-3622,PAYLOAD,2024-01-13 03:39:34,15.08834499,0.0001669,53.2169,270.0241,73.6588,286.4587,6.6998e-05,7.78e-06,0.0,0 STARLINK-3622,1 51768U 22017A   24013.15248405  .00000778  00000-0  66998-4 0  9992,2 51768  53.2169 270.0241 0001669  73.6588 286.4587 15.08834499105311,6917.897,95.438,540.917,538.608,0.0
51768.0,STARLINK-3622,PAYLOAD,2024-01-14 00:19:34,15.08847454,0.0001419,53.2156,266.161,88.4682,271.6472,0.00018387,2.64e-05,0.0,0 STARLINK-3622,1 51768U 22017A   24014.01359850  .00002640  00000-0  18387-3 0  9993,2 51768  53.2156 266.1610 0001419  88.4682 271.6472 15.08847454105443,6917.858,95.437,540.704,538.741,0.0
51768.0,STARLINK-3622,PAYLOAD,2024-01-14 16:13:26,15.08838652,0.0001645,53.216,263.1904,61.2573,298.8585,0.00033113,4.986e-05,0.0,0 STARLINK-3622,1 51768U 22017A   24014.67600450  .00004986  00000-0  33113-3 0  9999,2 51768  53.2160 263.1904 0001645  61.2573 298.8585 15.08838652105547,6917.885,95.438,540.888,538.612,0.0
51768.0,STARLINK-3622,PAYLOAD,2024-01-14 22:34:59,15.08845641,0.0001586,53.2157,262.0005,72.0811,288.0354,0.00016993,2.418e-05,0.0,0 STARLINK-3622,1 51768U 22017A   24014.94096102  .00002418  00000-0  16993-3 0  9997,2 51768  53.2157 262.0005 0001586  72.0811 288.0354 15.08845641105576,6917.863,95.437,540.825,538.631,0.0
51768.0,STARLINK-3622,PAYLOAD,2024-01-15 00:10:21,15.08850744,0.0001381,53.2166,261.7019,92.0487,268.0663,0.00021824,3.188e-05,0.0,0 STARLINK-3622,1 51768U 22017A   24015.00719659  .00003188  00000-0  21824-3 0  9998,2 51768  53.2166 261.7019 0001381  92.0487 268.0663 15.08850744105594,6917.848,95.437,540.668,538.757,0.0
51768.0,STARLINK-3622,PAYLOAD,2024-01-15 20:50:23,15.08842411,0.0001989,53.2168,257.8387,60.2511,299.8679,4.2569e-05,3.89e-06,0.0,0 STARLINK-3622,1 51768U 22017A   24015.86832285  .00000389  00000-0  42569-4 0  9993,2 51768  53.2168 257.8387 0001989  60.2511 299.8679 15.08842411105714,6917.873,95.437,541.114,538.362,0.0
51768.0,STARLINK-3622,PAYLOAD,2024-01-15 22:25:46,15.08842248,0.0001975,53.2166,257.5411,62.0557,298.0635,3.1105e-05,2.07e-06,0.0,0 STARLINK-3622,1 51768U 22017A   24015.93456264  .00000207  00000-0  31105-4 0  9993,2 51768  53.2166 257.5411 0001975  62.0557 298.0635 15.08842248105735,6917.874,95.437,541.105,538.372,0.0
51768.0,STARLINK-3622,PAYLOAD,2024-01-16 22:16:33,15.08843392,0.0001721,53.2171,253.0775,92.471,267.6479,5.5669e-06,-1.99e-06,0.0,0 STARLINK-3622,1 51768U 22017A   24016.92816101 -.00000199  00000-0  55669-5 0  9996,2 51768  53.2171 253.0775 0001721  92.4710 267.6479 15.08843392105876,6917.87,95.437,540.926,538.544,0.0
51768.0,STARLINK-3622,PAYLOAD,2024-01-17 01:27:19,15.08848939,0.0001837,53.2165,252.481,100.1371,259.9829,-3.2785e-05,-8.1e-06,0.0,0 STARLINK-3622,1 51768U 22017A   24017.06063713 -.00000810  00000-0 -32785-4 0  9999,2 51768  53.2165 252.4810 0001837 100.1371 259.9829 15.08848939105909,6917.853,95.437,540.989,538.447,0.0
51768.0,STARLINK-3622,PAYLOAD,2024-01-17 18:56:34,15.08830328,0.000156,53.216,249.2088,97.8086,262.3083,1.9898e-05,2.9e-07,0.0,0 STARLINK-3622,1 51768U 22017A   24017.78929034  .00000029  00000-0  19898-4 0  9995,2 51768  53.2160 249.2088 0001560  97.8086 262.3083 15.08830328106019,6917.91,95.438,540.854,538.696,0.0
51768.0,STARLINK-3622,PAYLOAD,2024-01-17 22:07:19,15.08845089,0.0001532,53.2162,248.6149,112.317,247.7985,0.0001566,2.206e-05,0.0,0 STARLINK-3622,1 51768U 22017A   24017.92175756  .00002206  00000-0  15660-3 0  9996,2 51768  53.2162 248.6149 0001532 112.3170 247.7985 15.08845089106027,6917.865,95.437,540.79,538.67,0.0
51768.0,STARLINK-3622,PAYLOAD,2024-01-18 01:18:05,15.08850561,0.0001385,53.2159,248.0196,110.2906,249.8235,0.00020154,2.922e-05,0.0,0 STARLINK-3622,1 51768U 22017A   24018.05423274  .00002922  00000-0  20154-3 0  9991,2 51768  53.2159 248.0196 0001385 110.2906 249.8235 15.08850561106054,6917.848,95.437,540.671,538.755,0.0
51768.0,STARLINK-3622,PAYLOAD,2024-01-18 20:22:44,15.08842505,0.0001563,53.2157,244.4455,116.0356,244.0797,3.2575e-05,2.3e-06,0.0,0 STARLINK-3622,1 51768U 22017A   24018.84912269  .00000230  00000-0  32575-4 0  9996,2 51768  53.2157 244.4455 0001563 116.0356 244.0797 15.08842505106173,6917.873,95.437,540.819,538.656,0.0
